ONEWEB-0522             
1 54140U 22138AD  26194.22344608 -.00002811  00000+0 -70556-2 0  9999
2 54140  87.9213 299.7724 0001911 121.6547 238.4772 13.19735053180249
ONEWEB-0523             
1 54141U 22138AE  26193.71086751  .00000022  00000+0  21496-4 0  9996
2 54141  87.9187 269.3556 0002329  80.5413 279.5983 13.20772638182676
ONEWEB-0524             
1 54142U 22138AF  26194.00379825  .00000035  00000+0  54528-4 0  9993
2 54142  87.9187 269.2937 0002927  96.2376 263.9091 13.20772338182714
ONEWEB-0525             
1 54143U 22138AG  26194.31821437 -.00000002  00000+0 -36975-4 0  9991
2 54143  87.9196 299.7626 0002147 111.7971 248.3391 13.19723087180270
ONEWEB-0526             
1 54144U 22138AH  26194.27557069 -.00000037  00000+0 -12531-3 0  9993
2 54144  87.9193 299.7720 0002129 103.7701 256.3669 13.19723509180248
ONEWEB-0529             
1 54145U 22138AJ  26194.27874232  .00000008  00000+0 -12081-4 0  9996
2 54145  87.9187 299.7782 0002052 108.1040 252.0317 13.19726220180268
ONEWEB-0531             
1 54146U 22138AK  26193.76305261  .00000103  00000+0  22199-3 0  9996
2 54146  87.9191 269.3386 0002612  81.2048 278.9381 13.20773364182687
ONEWEB-0535             
1 54147U 22138AL  26194.31189502  .00000108  00000+0  23849-3 0  9995
2 54147  87.9190 299.7590 0001951  91.8881 268.2476 13.19727178180289
ONEWEB-0536             
1 54148U 22138AM  26194.20412660 -.00000028  00000+0 -10073-3 0  9996
2 54148  87.9174 269.2705 0002811  82.6752 277.4700 13.20772748182732
ONEWEB-0527             
1 54642U 22166A   26193.53494079  .00000077  00000+0  15506-3 0  9993
2 54642  87.9236 238.9522 0002131  97.9354 262.2022 13.21827284174885
ONEWEB-0528             
1 54643U 22166B   26193.53578015  .00000099  00000+0  20822-3 0  9998
2 54643  87.9239 238.9547 0002152 103.1151 257.0223 13.21825889174899
ONEWEB-0539             
1 54644U 22166C   26193.95209578  .00000074  00000+0  14706-3 0  9997
2 54644  87.9241 238.8457 0001871  95.1898 264.9450 13.21824099174944
ONEWEB-0540             
1 54645U 22166D   26193.65618170 -.00000053  00000+0 -15897-3 0  9998
2 54645  87.9231 238.9333 0001931  94.6966 265.4389 13.21824163174898
ONEWEB-0542             
1 54646U 22166E   26193.96220678  .00000055  00000+0  10050-3 0  9991
2 54646  87.9242 238.8425 0001756  93.6231 266.5104 13.21826190174946
ONEWEB-0545             
1 54647U 22166F   26193.54840302  .00000056  00000+0  10291-3 0  9996
2 54647  87.9235 238.9345 0001582  86.5396 273.5919 13.21825761174856
ONEWEB-0580             
1 54648U 22166G   26193.67453707 -.00000013  00000+0 -62026-4 0  9999
2 54648  87.9248 238.9065 0001809  87.8377 272.2964 13.21823979174917
ONEWEB-0582             
1 54649U 22166H   26193.64088912  .00000890  00000+0  21228-2 0  9997
2 54649  87.9238 238.9082 0001991  88.4259 271.7104 13.21853740174889
ONEWEB-0583             
1 54650U 22166J   26193.65269403  .00000011  00000+0 -40099-5 0  9992
2 54650  87.9235 238.9294 0001958  94.8666 265.2691 13.21826009174897
ONEWEB-0584             
1 54651U 22166K   26193.67286721  .00000018  00000+0  12795-4 0  9994
2 54651  87.9236 238.9096 0002062  95.5210 264.6159 13.21824640174889
ONEWEB-0585             
1 54652U 22166L   26193.54501299  .00000088  00000+0  18242-3 0  9990
2 54652  87.9253 238.9216 0002474  91.4713 268.6705 13.21823682174878
ONEWEB-0586             
1 54653U 22166M   26193.63417481 -.00000193  00000+0 -49856-3 0  9994
2 54653  87.9203 238.9360 0002362  84.6811 275.4592 13.21832732174880
ONEWEB-0587             
1 54654U 22166N   26193.64428596 -.00000023  00000+0 -87226-4 0  9991
2 54654  87.9244 238.9053 0002373 101.7378 258.4022 13.21825770175048
ONEWEB-0589             
1 54655U 22166P   26193.63082757  .00000048  00000+0  85211-4 0  9993
2 54655  87.9224 238.9181 0001471  75.9182 284.2115 13.21825720174901
ONEWEB-0590             
1 54656U 22166Q   26193.95869095  .00000083  00000+0  16886-3 0  9997
2 54656  87.9240 238.8447 0002347  84.7323 275.4078 13.21826234174936
ONEWEB-0591             
1 54657U 22166R   26193.51641603  .00000073  00000+0  14616-3 0  9991
2 54657  87.9235 238.9448 0002074  94.2006 265.9365 13.21828589174909
ONEWEB-0592             
1 54658U 22166S   26193.67117997  .00000050  00000+0  90161-4 0  9998
2 54658  87.9242 238.8945 0002031  95.7123 264.4242 13.21824027174808
ONEWEB-0593             
1 54659U 22166T   26193.54166664  .00000081  00000+0  16428-3 0  9997
2 54659  87.9237 238.9302 0001904  97.4417 262.6933 13.21825941174896
ONEWEB-0594             
1 54660U 22166U   26193.63754111  .00000012  00000+0 -12796-5 0  9990
2 54660  87.9235 238.9270 0002163 100.5567 259.5810 13.21824467174925
ONEWEB-0595             
1 54661U 22166V   26193.53830770  .00000064  00000+0  12449-3 0  9995
2 54661  87.9240 238.9303 0002299  97.6702 262.4693 13.21825677174887
ONEWEB-0596             
1 54662U 22166W   26193.66444821  .00000031  00000+0  43243-4 0  9999
2 54662  87.9238 238.9140 0002132  96.9807 263.1569 13.21823863174906
